{
    "links": {
        "self": "http://www.neowsapp.com/rest/v1/neo/3653601?api_key=iIulBulltgU6a56xZRHN4H3l9WmuAYTsLGpBGhQ2"
    },
    "id": "3653601",
    "neo_reference_id": "3653601",
    "name": "(2013 VB10)",
    "designation": "2013 VB10",
    "nasa_jpl_url": "http://ssd.jpl.nasa.gov/sbdb.cgi?sstr=3653601",
    "absolute_magnitude_h": 22.7,
    "estimated_diameter": {
        "kilometers": {
            "estimated_diameter_min": 0.0766575574,
            "estimated_diameter_max": 0.1714115092
        },
        "meters": {
            "estimated_diameter_min": 76.6575573531,
            "estimated_diameter_max": 171.4115092306
        },
        "miles": {
            "estimated_diameter_min": 0.0476327831,
            "estimated_diameter_max": 0.1065101409
        },
        "feet": {
            "estimated_diameter_min": 251.5011804664,
            "estimated_diameter_max": 562.3737359442
        }
    },
    "is_potentially_hazardous_asteroid": false,
    "close_approach_data": [
        {
            "close_approach_date": "2013-11-02",
            "close_approach_date_full": "2013-Nov-02 12:50",
            "epoch_date_close_approach": 1383396600000,
            "relative_velocity": {
                "kilometers_per_second": "13.4964210398",
                "kilometers_per_hour": "48587.1157431727",
                "miles_per_hour": "30190.144223862"
            },
            "miss_distance": {
                "astronomical": "0.1543853485",
                "lunar": "60.0559005665",
                "kilometers": "23095719.294807695",
                "miles": "14351014.504408391"
            },
            "orbiting_body": "Earth"
        }
    ],
    "orbital_data": {
        "orbit_id": "10",
        "orbit_determination_date": "2017-04-06 08:43:45",
        "first_observation_date": "2013-11-08",
        "last_observation_date": "2013-12-01",
        "data_arc_in_days": 23,
        "observations_used": 35,
        "orbit_uncertainty": "7",
        "minimum_orbit_intersection": ".142216",
        "jupiter_tisserand_invariant": "4.155",
        "epoch_osculation": "2459000.5",
        "eccentricity": ".3091725636505661",
        "semi_major_axis": "1.635204625707532",
        "inclination": "24.20039222668903",
        "ascending_node_longitude": "41.38188853248543",
        "orbital_period": "763.7594333934329",
        "perihelion_distance": "1.12964421948427",
        "perihelion_argument": "348.6862796903613",
        "aphelion_distance": "2.140765031930794",
        "perihelion_time": "2458883.323361872610",
        "mean_anomaly": "55.23151385304118",
        "mean_motion": ".4713526069334379",
        "equinox": "J2000",
        "orbit_class": {
            "orbit_class_type": "AMO",
            "orbit_class_description": "Near-Earth asteroid orbits similar to that of 1221 Amor",
            "orbit_class_range": "1.017 AU < q (perihelion) < 1.3 AU"
        }
    },
    "is_sentry_object": false
}